CCSDS_OMM_VERS = 2.0
CREATION_DATE  = 
ORIGINATOR     = 

OBJECT_NAME    = SOYUZ-MS 28
OBJECT_ID      = 2025-275A
CENTER_NAME    = EARTH
REF_FRAME      = TEME
TIME_SYSTEM    = UTC
MEAN_ELEMENT_THEORY = SGP/SGP4

EPOCH          = 2026-01-14T21:15:56.381472
MEAN_MOTION    = 15.49293899
ECCENTRICITY   = .00077611
INCLINATION    = 51.6333
RA_OF_ASC_NODE = 338.3791
ARG_OF_PERICENTER = 18.9639
MEAN_ANOMALY   = 341.1637

EPHEMERIS_TYPE = 0
CLASSIFICATION_TYPE = U
NORAD_CAT_ID   = 66664
ELEMENT_SET_NO = 999
REV_AT_EPOCH   = 128
BSTAR          = .12902445E-3
MEAN_MOTION_DOT = .674E-4
MEAN_MOTION_DDOT = 0

CCSDS_OMM_VERS = 2.0
CREATION_DATE  = 
ORIGINATOR     = 

OBJECT_NAME    = DUPLEX
OBJECT_ID      = 1998-067XS
CENTER_NAME    = EARTH
REF_FRAME      = TEME
TIME_SYSTEM    = UTC
MEAN_ELEMENT_THEORY = SGP/SGP4

EPOCH          = 2026-01-14T07:42:17.522496
MEAN_MOTION    = 15.52452216
ECCENTRICITY   = .00022545
INCLINATION    = 51.6318
RA_OF_ASC_NODE = 340.6080
ARG_OF_PERICENTER = 11.6436
MEAN_ANOMALY   = 348.4605

EPHEMERIS_TYPE = 0
CLASSIFICATION_TYPE = U
NORAD_CAT_ID   = 66906
ELEMENT_SET_NO = 999
REV_AT_EPOCH   = 667
BSTAR          = .30586371E-3
MEAN_MOTION_DOT = .18629E-3
MEAN_MOTION_DDOT = 0

CCSDS_OMM_VERS = 2.0
CREATION_DATE  = 
ORIGINATOR     = 

OBJECT_NAME    = 1998-067XT
OBJECT_ID      = 1998-067XT
CENTER_NAME    = EARTH
REF_FRAME      = TEME
TIME_SYSTEM    = UTC
MEAN_ELEMENT_THEORY = SGP/SGP4

EPOCH          = 2026-01-14T21:55:16.912416
MEAN_MOTION    = 15.56352363
ECCENTRICITY   = .0003649
INCLINATION    = 51.6307
RA_OF_ASC_NODE = 337.0636
ARG_OF_PERICENTER = 60.7618
MEAN_ANOMALY   = 299.3738

EPHEMERIS_TYPE = 0
CLASSIFICATION_TYPE = U
NORAD_CAT_ID   = 66907
ELEMENT_SET_NO = 999
REV_AT_EPOCH   = 677
BSTAR          = .67369255E-3
MEAN_MOTION_DOT = .4821E-3
MEAN_MOTION_DDOT = 0

CCSDS_OMM_VERS = 2.0
CREATION_DATE  = 
ORIGINATOR     = 

OBJECT_NAME    = 1998-067XU
OBJECT_ID      = 1998-067XU
CENTER_NAME    = EARTH
REF_FRAME      = TEME
TIME_SYSTEM    = UTC
MEAN_ELEMENT_THEORY = SGP/SGP4

EPOCH          = 2026-01-14T06:29:17.865888
MEAN_MOTION    = 15.56263291
ECCENTRICITY   = .00035529
INCLINATION    = 51.6306
RA_OF_ASC_NODE = 340.2677
ARG_OF_PERICENTER = 53.6939
MEAN_ANOMALY   = 306.4380

EPHEMERIS_TYPE = 0
CLASSIFICATION_TYPE = U
NORAD_CAT_ID   = 66908
ELEMENT_SET_NO = 999
REV_AT_EPOCH   = 667
BSTAR          = .71282154E-3
MEAN_MOTION_DOT = .50885E-3
MEAN_MOTION_DDOT = 0

CCSDS_OMM_VERS = 2.0
CREATION_DATE  = 
ORIGINATOR     = 

OBJECT_NAME    = SILVERSAT
OBJECT_ID      = 1998-067XV
CENTER_NAME    = EARTH
REF_FRAME      = TEME
TIME_SYSTEM    = UTC
MEAN_ELEMENT_THEORY = SGP/SGP4

EPOCH          = 2026-01-14T07:49:50.540160
MEAN_MOTION    = 15.56976971
ECCENTRICITY   = .00038132
INCLINATION    = 51.6311
RA_OF_ASC_NODE = 339.8918
ARG_OF_PERICENTER = 65.7143
MEAN_ANOMALY   = 294.4246

EPHEMERIS_TYPE = 0
CLASSIFICATION_TYPE = U
NORAD_CAT_ID   = 66909
ELEMENT_SET_NO = 999
REV_AT_EPOCH   = 668
BSTAR          = .80426426E-3
MEAN_MOTION_DOT = .59095E-3
MEAN_MOTION_DDOT = 0

CCSDS_OMM_VERS = 2.0
CREATION_DATE  = 
ORIGINATOR     = 

OBJECT_NAME    = 1998-067XW
OBJECT_ID      = 1998-067XW
CENTER_NAME    = EARTH
REF_FRAME      = TEME
TIME_SYSTEM    = UTC
MEAN_ELEMENT_THEORY = SGP/SGP4

EPOCH          = 2026-01-14T21:43:51.096864
MEAN_MOTION    = 15.56653675
ECCENTRICITY   = .00025869
INCLINATION    = 51.6292
RA_OF_ASC_NODE = 337.0080
ARG_OF_PERICENTER = 41.1405
MEAN_ANOMALY   = 318.9782

EPHEMERIS_TYPE = 0
CLASSIFICATION_TYPE = U
NORAD_CAT_ID   = 66910
ELEMENT_SET_NO = 999
REV_AT_EPOCH   = 677
BSTAR          = .66544887E-3
MEAN_MOTION_DOT = .48148E-3
MEAN_MOTION_DDOT = 0

CCSDS_OMM_VERS = 2.0
CREATION_DATE  = 
ORIGINATOR     = 

OBJECT_NAME    = 1998-067XX
OBJECT_ID      = 1998-067XX
CENTER_NAME    = EARTH
REF_FRAME      = TEME
TIME_SYSTEM    = UTC
MEAN_ELEMENT_THEORY = SGP/SGP4

EPOCH          = 2026-01-14T21:21:52.951680
MEAN_MOTION    = 15.57816606
ECCENTRICITY   = .00026792
INCLINATION    = 51.6295
RA_OF_ASC_NODE = 336.9068
ARG_OF_PERICENTER = 60.8469
MEAN_ANOMALY   = 299.2791

EPHEMERIS_TYPE = 0
CLASSIFICATION_TYPE = U
NORAD_CAT_ID   = 66911
ELEMENT_SET_NO = 999
REV_AT_EPOCH   = 676
BSTAR          = .82373722E-3
MEAN_MOTION_DOT = .62499E-3
MEAN_MOTION_DDOT = 0

CCSDS_OMM_VERS = 2.0
CREATION_DATE  = 
ORIGINATOR     = 

OBJECT_NAME    = 1998-067XY
OBJECT_ID      = 1998-067XY
CENTER_NAME    = EARTH
REF_FRAME      = TEME
TIME_SYSTEM    = UTC
MEAN_ELEMENT_THEORY = SGP/SGP4

EPOCH          = 2026-01-14T06:56:50.197632
MEAN_MOTION    = 15.54874578
ECCENTRICITY   = .00034513
INCLINATION    = 51.6311
RA_OF_ASC_NODE = 340.3961
ARG_OF_PERICENTER = 41.1632
MEAN_ANOMALY   = 318.9619

EPHEMERIS_TYPE = 0
CLASSIFICATION_TYPE = U
NORAD_CAT_ID   = 66912
ELEMENT_SET_NO = 999
REV_AT_EPOCH   = 666
BSTAR          = .5660808E-3
MEAN_MOTION_DOT = .38217E-3
MEAN_MOTION_DDOT = 0

