SOYUZ-MS 28             
1 66664U 25275A   26014.88606923  .00006740  00000+0  12902-3 0  9997
2 66664  51.6333 338.3791 0007761  18.9639 341.1637 15.49293899  1287
DUPLEX                  
1 66906U 98067XS  26014.32103614  .00018629  00000+0  30586-3 0  9990
2 66906  51.6318 340.6080 0002254  11.6436 348.4605 15.52452216  6670
1998-067XT              
1 66907U 98067XT  26014.91339019  .00048210  00000+0  67369-3 0  9994
2 66907  51.6307 337.0636 0003649  60.7618 299.3738 15.56352363  6770
1998-067XU              
1 66908U 98067XU  26014.27034567  .00050885  00000+0  71282-3 0  9994
2 66908  51.6306 340.2677 0003552  53.6939 306.4380 15.56263291  6674
SILVERSAT               
1 66909U 98067XV  26014.32627940  .00059095  00000+0  80426-3 0  9996
2 66909  51.6311 339.8918 0003813  65.7143 294.4246 15.56976971  6688
1998-067XW              
1 66910U 98067XW  26014.90545251  .00048148  00000+0  66545-3 0  9999
2 66910  51.6292 337.0080 0002586  41.1405 318.9782 15.56653675  6773
1998-067XX              
1 66911U 98067XX  26014.89019620  .00062499  00000+0  82374-3 0  9997
2 66911  51.6295 336.9068 0002679  60.8469 299.2791 15.57816606  6768
1998-067XY              
1 66912U 98067XY  26014.28946988  .00038217  00000+0  56608-3 0  9999
2 66912  51.6311 340.3961 0003451  41.1632 318.9619 15.54874578  6668
